ELFIN-B                 
1 43616U 18070D   21029.53959896  .00005274  00000-0  12059-3 0  9992
2 43616  93.0196 248.3233 0014750 171.7544 188.3957 15.42742383133345
ELFIN-A                 
1 43617U 18070E   21029.53546308  .00005528  00000-0  12497-3 0  9991
2 43617  93.0251 249.0360 0014237 168.0968 192.0628 15.43087562133356
CUBEBEL-1 (BSUSAT-1)    
1 43666U 18083E   21029.53622186  .00002232  00000-0  11020-3 0  9998
2 43666  97.4707  59.5848 0013146 296.1789 218.4931 15.18865523124927
CICERO 10               
1 43690U 18088A   21029.43235035  .00001497  00000-0  65998-4 0  9998
2 43690  85.0380 289.3678 0013806 192.5378 167.5522 15.20803650123097
IRVINE01                
1 43693U 18088D   21029.44311024  .00003591  00000-0  14446-3 0  9993
2 43693  85.0346 287.2724 0016834 170.7903 189.3652 15.24385349123255
PROXIMA I               
1 43694U 18088E   21029.42857081  .00001382  00000-0  57582-4 0  9995
2 43694  85.0320 287.3312 0019149 165.3520 194.8281 15.22535448123220
PROXIMA II              
1 43696U 18088G   21029.42669473  .00001388  00000-0  57812-4 0  9995
2 43696  85.0322 287.3389 0019194 165.3318 194.8485 15.22534645123216
FACSAT-1                
1 43721U 18096C   21029.48029660  .00002934  00000-0  10918-3 0  9990
2 43721  97.4000 107.6672 0018183  47.9079  48.1607 15.28157963120898
CENTAURI-2              
1 43722U 18096D   21029.45800143  .00002904  00000-0  10536-3 0  9994
2 43722  97.4014 108.1899 0017960  47.3795 312.8956 15.29000115120910
INNOSAT-2               
1 43738U 18096V   21029.46938840  .00005936  00000-0  19273-3 0  9993
2 43738  97.4051 111.2043 0023314  49.9120 321.1767 15.32064195121112
SIRION PATHFINDER-2     
1 43759U 18099B   21029.62108574  .00000790  00000-0  76484-4 0  9991
2 43759  97.6825 103.1281 0015136 141.8759 218.3539 14.95414860117736
CORVUS BC4              
1 43767U 18099K   21029.31194102  .00000317  00000-0  34293-4 0  9995
2 43767  97.6806 101.9883 0012611 147.5591 212.6399 14.94851385117647
MOVE-II                 
1 43780U 18099Y   21029.47136422  .00001063  00000-0  10047-3 0  9997
2 43780  97.6832 103.0180 0014327 154.5570 205.6359 14.95701418117690
SPACEBEE-7              
1 43816U 18099BL  21029.16900229  .00000302  00000-0  32000-4 0  9996
2 43816  97.6851 103.2453 0014343 139.9292 220.2990 14.95945749117233
SPACEBEE-5              
1 43817U 18099BM  21029.47666953  .00001841  00000-0  16517-3 0  9997
2 43817  97.6918 104.4316 0014407 139.8757 220.3532 14.96896780117318
SPACEBEE-6              
1 43818U 18099BN  21029.16422178  .00000858  00000-0  81009-4 0  9999
2 43818  97.6873 103.5126 0014365 139.6101 220.6190 14.96238699117392
SHIELDS 1               
1 43850U 18104B   21029.51221874  .00000833  00000-0  34995-4 0  9996
2 43850  85.0282  25.8573 0013420 327.3883  32.6528 15.21670610117847
STF-1                   
1 43852U 18104D   21029.51837470  .00002010  00000-0  86314-4 0  9994
2 43852  85.0321  26.5069 0013488 343.8019  16.2790 15.21934290117823
ZACUBE-2                
1 43907U 18111AH  21029.55706155  .00001023  00000-0  43612-4 0  9999
2 43907  97.2484 288.2557 0023003  66.2106  30.1698 15.24934039116460
LUME 1                  
1 43908U 18111AJ  21029.44348112  .00001607  00000-0  65399-4 0  9997
2 43908  97.2484 288.5163 0022444  65.6090 294.7487 15.25708537116478
AOBA VELOX-IV           
1 43940U 19003J   21029.55229580  .00003421  00000-0  13408-3 0  9992
2 43940  97.1991  78.8130 0024313 139.3724 220.9335 15.26155821113114
CATSAT-2                
1 44029U 98067PV  21029.56863513  .00058826  00000-0  27917-3 0  9998
2 44029  51.6367 239.9564 0003944 206.9786 153.1012 15.82349178114079
DELPHINI                
1 44030U 98067PW  21029.58085563  .00123628  00000-0  42836-3 0  9993
2 44030  51.6257 234.4664 0005257 212.3807 147.6877 15.88572813114116
UNITE                   
1 44031U 98067PX  21029.34979792  .00019489  00000-0  17176-3 0  9992
2 44031  51.6357 258.7751 0003219 180.8726 179.2265 15.68740095113779
CATSAT-1                
1 44033U 98067PZ  21029.00034979  .00053212  00000-0  25410-3 0  9998
2 44033  51.6371 242.9211 0004005 202.1798 157.9032 15.82257060113893
RAAVANA-1               
1 44329U 98067QE  21029.37924022  .00022476  00000-0  22052-3 0  9990
2 44329  51.6367 276.3219 0006325 130.7491 229.4055 15.65957763 92296
UGUISU                  
1 44330U 98067QF  21029.41000748  .00023092  00000-0  22829-3 0  9994
2 44330  51.6341 276.4685 0006319 130.3527 229.8021 15.65749137 92276
NEPALISAT-1             
1 44331U 98067QG  21029.05153309  .00023102  00000-0  22683-3 0  9997
2 44331  51.6342 277.8258 0006372 131.4378 228.7166 15.65920762 92233
SPOOQY-1                
1 44332U 98067QH  21029.39968373  .00021406  00000-0  21335-3 0  9998
2 44332  51.6350 276.4221 0005613 134.1851 225.9607 15.65601478 92241
SPACEBEE-9              
1 44370U 19037F   21029.13895882  .00016455  00000-0  29526-3 0  9994
2 44370  45.0033 289.3514 0010746 106.2376 253.9699 15.49716050 89525
SPACEBEE-8              
1 44371U 19037G   21029.37482625  .00062857  00000-0  65272-3 0  9993
2 44371  45.0015 268.2649 0010572 172.1981 187.9082 15.63766908 89796
IOD-1 GEMS              
1 44385U 98067QK  21029.07392207  .00076335  00000-0  43665-3 0  9999
2 44385  51.6350 267.5249 0004730 145.9906 214.1399 15.78152412 89854
MOVE-IIB                
1 44398U 19038N   21029.59268889  .00002245  00000-0  12959-3 0  9990
2 44398  97.5636 354.4293 0026368  69.0187 291.3858 15.13085658 86767
SONATE                  
1 44400U 19038Q   21029.57570444  .00000698  00000-0  43809-4 0  9994
2 44400  97.5694 354.3759 0026483  68.9120 291.4940 15.12289328 86744
LUCKY-7                 
1 44406U 19038W   21029.41519628  .00001008  00000-0  61057-4 0  9991
2 44406  97.5713 354.4031 0025934  68.8885 291.5115 15.12629851 86725
BEESAT 9                
1 44412U 19038AC  21029.45978514  .00001392  00000-0  82444-4 0  9994
2 44412  97.5701 354.4424 0024024  73.9825 286.4050 15.12848051 86439
JAISAT-1                
1 44419U 19038F   21029.47397965  .00001387  00000-0  81154-4 0  9999
2 44419  97.5702 354.8938 0022830  72.6586 287.7140 15.13332017 86776
SWIATOWID               
1 44426U 98067QL  21029.37855576  .00166615  00000-0  71545-3 0  9990
2 44426  51.6400 261.6247 0003680 161.1725   9.4147 15.84044045 89968
KRAKSAT                 
1 44427U 98067QM  21029.74854955  .00021039  00000-0  24678-3 0  9997
2 44427  51.6419 282.5342 0004055  94.2738 306.1767 15.61447188 89767
VCC A                   
1 44428U 98067QN  21029.10470015  .00021613  00000-0  22202-3 0  9998
2 44428  51.6374 280.5504 0003780 112.8174 247.3221 15.64839866 89730
ENTRYSAT                
1 44429U 98067QP  21029.39623355  .00029758  00000-0  26611-3 0  9993
2 44429  51.6336 274.9112 0003716 120.1292 240.0074 15.68102302 89832
VCC C                   
1 44430U 98067QQ  21029.03168519  .00049600  00000-0  35471-3 0  9994
2 44430  51.6335 271.7154 0004059 140.0457 220.0841 15.73220598 88674
VCC B                   
1 44431U 98067QR  21029.41005009  .00021302  00000-0  21707-3 0  9997
2 44431  51.6350 278.7858 0003859 114.3421 245.7977 15.65053696 89727
DUCHIFAT-3              
1 44854U 19089C   21029.48100890  .00000529  00000-0  48933-4 0  9993
2 44854  36.9649 202.3732 0006843  85.0569 275.0989 14.99307647 62230
EYESAT-NANO             
1 44877U 19092E   21029.50855610  .00001642  00000-0  85175-4 0  9998
2 44877  97.4545 215.1875 0012375 318.0749  41.9536 15.17490520 61868
ORBITAL FACTORY 2 (OF-2)
1 45113U 19071C   21029.29949484  .00003765  00000-0  12130-3 0  9996
2 45113  51.6436 351.6648 0012706 148.2149 211.9603 15.34679532 55792
M2 PATHFINDER           
1 45727U 20037E   21029.39720831  .00000780  00000-0  83757-4 0  9993
2 45727  97.7049 210.2929 0011657 268.5866  91.3997 14.91309327 31695
NETSAT-4                
1 46504U 20068U   21029.53523184 -.00000019  00000-0  31785-5 0  9990
2 46504  97.6823 327.6754 0007905 206.4102 153.6725 15.01960369 18385
NETSAT-3                
1 46505U 20068V   21029.40512692  .00000130  00000-0  14512-4 0  9990
2 46505  97.6804 327.5313 0007307 206.1280 153.9561 15.01928624 18373
NETSAT-1                
1 46506U 20068W   21029.54170755  .00000325  00000-0  29491-4 0  9994
2 46506  97.6817 327.6546 0007116 201.1615 158.9328 15.01897325 18393
NETSAT-2                
1 46507U 20068X   21029.54312441  .00000327  00000-0  29673-4 0  9999
2 46507  97.6821 327.6563 0007225 201.0474 159.0464 15.01876401 18341
SPOC                    
1 46921U 98067RR  21029.46907304  .00006711  00000-0  11817-3 0  9995
2 46921  51.6437 307.7083 0001077 274.2211  85.8656 15.51717537 13264
BOBCAT-1                
1 46922U 98067RS  21029.19697875  .00010972  00000-0  18464-3 0  9994
2 46922  51.6441 308.8938 0000581 270.8098  89.2825 15.52262294 13188
NEUTRON-1               
1 46923U 98067RT  21029.47417907  .00006627  00000-0  11721-3 0  9993
2 46923  51.6436 307.7413 0000984 304.1734  55.9162 15.51614364 13298
1998-067RU              
1 46924U 98067RU  21029.17370387  .00016149  00000-0  25890-3 0  9993
2 46924  51.6430 308.7350 0001064  32.7153 327.3903 15.53232476 13227
DESCENT                 
1 46927U 98067RX  21029.47693725  .00006929  00000-0  12232-3 0  9994
2 46927  51.6437 307.7586 0001365 343.6031  16.4915 15.51585301 13203
